[{"OBJECT_NAME":"STARLINK-2162","OBJECT_ID":"2021-017AC","EPOCH":"2026-03-10T00:00:02.999808","MEAN_MOTION":15.43772668,"ECCENTRICITY":0.00014572,"INCLINATION":53.1597,"RA_OF_ASC_NODE":191.6708,"ARG_OF_PERICENTER":88.7385,"MEAN_ANOMALY":324.0678,"EPHEMERIS_TYPE":0,"CLASSIFICATION_TYPE":"U","NORAD_CAT_ID":47748,"ELEMENT_SET_NO":999,"REV_AT_EPOCH":576,"BSTAR":0.023342841,"MEAN_MOTION_DOT":0.0117885,"MEAN_MOTION_DDOT":0},{"OBJECT_NAME":"CHOLLIMA-1 R\/B","OBJECT_ID":"2023-179B","EPOCH":"2026-03-09T17:02:54.070656","MEAN_MOTION":15.57199022,"ECCENTRICITY":0.00173492,"INCLINATION":97.3179,"RA_OF_ASC_NODE":332.7764,"ARG_OF_PERICENTER":155.2544,"MEAN_ANOMALY":204.9547,"EPHEMERIS_TYPE":0,"CLASSIFICATION_TYPE":"U","NORAD_CAT_ID":58401,"ELEMENT_SET_NO":999,"REV_AT_EPOCH":12899,"BSTAR":0.00044530168,"MEAN_MOTION_DOT":0.00032569,"MEAN_MOTION_DDOT":0}]
